satname,norad_id,inclination_deg,eccentricity,mean_motion_rev_per_day,perigee_km,apogee_km,l1,l2
STARLINK-1008,44714,53.1564,0.0001285,15.31043991,471.8158900569997,473.5765541950859,1 44714U 19074B   26071.51342495  .00003379  00000+0  12302-3 0  9992,2 44714  53.1564 165.6214 0001285  80.7619 279.3527 15.31043991349308
STARLINK-1012,44718,53.1631,0.0001254,15.30278812,474.12038025091806,475.8391419346008,1 44718U 19074F   26071.56062461  .00011528  00000+0  39976-3 0  9994,2 44718  53.1631 165.4717 0001254  73.6386 286.4753 15.30278812349302
STARLINK-1017,44723,53.0542,0.0001832,15.24532611,490.93062778900367,493.4479153349039,1 44723U 19074L   26071.62497339  .00052918  00000+0  21209-2 0  9990,2 44723  53.0542 157.9178 0001832  42.1501 317.9637 15.24532611349413
STARLINK-1019,44724,53.0413,6.06e-05,15.82267359,323.62410950036974,324.4364121723838,1 44724U 19074M   26072.00002314  .00182205  00000+0  85047-3 0  9993,2 44724  53.0413 120.0512 0000606 217.7768 358.5294 15.82267359  5997
STARLINK-1020,44725,53.1608,0.0001245,15.30194646,474.3778112219552,476.0842998677863,1 44725U 19074N   26071.73870868  .00001170  00000+0  51642-4 0  9996,2 44725  53.1608 189.6848 0001245  74.7359 285.3780 15.30194646348971
STARLINK-1031,44736,53.0375,0.0005114,15.92375213,292.2251560113791,299.05109320883093,1 44736U 19074Z   26072.00002314  .00255304  35661-4  74536-3 0  9994,2 44736  53.0375 103.1430 0005114  18.9324 175.2606 15.92375213  6011
STARLINK-1036,44741,53.0492,0.0003739,15.56695095,394.69635961200856,399.7629788072436,1 44741U 19074AE  26072.00002314  .00082966  00000+0  11364-2 0  9995,2 44741  53.0492 172.5153 0003739 308.7308 319.4082 15.56695095  5924
STARLINK-1039,44744,53.0515,0.0002458,15.22041603,497.9927485454409,501.37388501316946,1 44744U 19074AH  26071.76766284  .00049146  00000+0  21225-2 0  9993,2 44744  53.0515 200.9453 0002458 187.2691 172.8270 15.22041603348826
STARLINK-1042,44747,53.0437,0.0001862,15.49990911,415.4874236974583,418.0178405964689,1 44747U 19074AL  26072.00651585  .00025360  00000+0  45157-3 0  9994,2 44747  53.0437  78.8765 0001862 116.0673 244.0526 15.49990911350584
STARLINK-1043,44748,53.0523,0.0002128,15.53900683,403.9065659571497,406.7936180635088,1 44748U 19074AM  26071.68096162  .00035729  00000+0  54971-3 0  9996,2 44748  53.0523 180.0618 0002128  75.0643 285.0602 15.53900683349110
STARLINK-1046,44751,53.0535,0.0004701,15.43891008,431.4358902322083,437.8412618287921,1 44751U 19074AQ  26071.71784594  .00043865  00000+0  95427-3 0  9998,2 44751  53.0535 196.4584 0004701 186.0425 174.0525 15.43891008348883
STARLINK-1047,44752,53.07,0.0001906,15.32657632,466.5819783902798,469.1916826744791,1 44752U 19074AR  26071.56121168  .00010271  00000+0  33228-3 0  9990,2 44752  53.0700 132.5908 0001906 218.5912 141.4953 15.32657632349789
STARLINK-1048,44753,53.0512,7.07e-05,15.54130547,404.2016548998736,405.1607453933748,1 44753U 19074AS  26072.00002314  .00106232  00000+0  15925-2 0  9998,2 44753  53.0512 152.8676 0000707   5.1479  24.4199 15.54130547  5870
STARLINK-1053,44758,53.0262,0.0007032,15.94195752,285.8668553389398,295.24570556857,1 44758U 19074AX  26072.00002314  .00348305  58465-4  91957-3 0  9995,2 44758  53.0262  66.4946 0007032  75.0793 268.9022 15.94195752  5963
STARLINK-1063,44768,53.1596,7.53e-05,15.29991883,475.3204354975942,476.35264391267356,1 44768U 19074BH  26071.75672750 -.00793051  00000+0 -29067-1 0  9996,2 44768  53.1596 205.1479 0000753 125.3423 234.7648 15.29991883348782
STARLINK-1067,44771,53.0514,0.0004353,15.58046187,390.3645580954626,396.2597817427941,1 44771U 19074BL  26071.64545601  .00063649  00000+0  83235-3 0  9992,2 44771  53.0514 189.8239 0004353 344.6451  15.4428 15.58046187348975
STARLINK-1068,44772,53.0466,0.000315,15.64582757,372.31194943889477,376.5660723257506,1 44772U 19074BM  26071.94505870  .00079832  00000+0  80878-3 0  9991,2 44772  53.0466 163.9310 0003150 315.7825  44.2937 15.64582757349356
STARLINK-1112,44925,53.0205,0.0002648,16.41807799,159.26636166929075,162.7294875253574,1 44925U 20001M   26071.85419625  .09170772  12410-4  53374-3 0  9993,2 44925  53.0205 223.7121 0002648 266.8125  93.2619 16.41807799341841
STARLINK-1114,44927,53.0502,0.0008064,15.50894084,408.63707318662,419.5916161553059,1 44927U 20001P   26071.96622942  .00036186  00000+0  61931-3 0  9991,2 44927  53.0502 313.6283 0008064 132.3838 227.7854 15.50894084340607
STARLINK-1123,44930,53.1518,0.0001739,15.28277487,479.7685661918831,482.1541606026731,1 44930U 20001S   26070.99141484  .00029519  00000+0  10657-2 0  9994,2 44930  53.1518 334.4473 0001739  57.5378 302.5790 15.28277487340226
STARLINK-1094,44941,53.1611,0.0001364,15.30184414,474.32680323097065,476.19641037090514,1 44941U 20001AD  26070.96950668  .00000710  00000+0  36122-4 0  9994,2 44941  53.1611 308.9717 0001364  92.5603 267.5554 15.30184414340580
STARLINK-1122,44949,53.16,0.0001231,15.30195902,474.3836561899743,476.0709544819474,1 44949U 20001AM  26071.38773397  .00004494  00000+0  16379-3 0  9995,2 44949  53.1600 307.0761 0001231  92.0197 268.0945 15.30195902340642
STARLINK-1080,44961,53.0516,0.0006797,15.47838877,418.42657937722197,427.6721120956154,1 44961U 20001AZ  26071.71626536  .00091370  00000+0  17164-2 0  9999,2 44961  53.0516 273.7282 0006797 132.5448 227.6134 15.47838877341149
STARLINK-1090,44968,53.1383,0.0001765,15.25318463,488.6171209653721,491.0415130752799,1 44968U 20001BG  26072.00002314  .00906545  00000+0  32930-1 0  9997,2 44968  53.1383 291.0453 0001765  89.0390 244.6238 15.25318463  5583
STARLINK-1132,45044,53.1558,0.0003951,15.43799265,432.2166465746268,437.6003151135901,1 45044U 20006A   26071.83009085  .00041168  00000+0  89941-3 0  9997,2 45044  53.1558 239.0685 0003951 211.7355 148.3414 15.43799265337415
STARLINK-1131,45047,53.1606,0.0001604,15.30202476,474.10840005347836,476.30695302571166,1 45047U 20006D   26071.93171438  .00001976  00000+0  78836-4 0  9998,2 45047  53.1606 265.9186 0001604  69.0725 291.0447 15.30202476337044
STARLINK-1134,45048,53.0319,0.0007611,15.443654,428.0592155305603,438.42749871016986,1 45048U 20006E   26071.73397542  .00095680  00000+0  20229-2 0  9999,2 45048  53.0319 223.8360 0007611 189.4020 170.6844 15.44365400337619
STARLINK-1156,45054,53.1584,0.0001069,15.30205799,474.46513322000374,475.9303761905603,1 45054U 20006L   26071.95805273  .00001600  00000+0  66115-4 0  9990,2 45054  53.1584 265.8105 0001069  86.7373 273.3750 15.30205799337048
STARLINK-1159,45057,53.0431,8.51e-05,15.82941454,321.5571897243635,322.6975747222177,1 45057U 20006P   26072.00002314  .00140547  00000+0  63949-3 0  9990,2 45057  53.0431 218.1003 0000851 133.0024 352.2002 15.82941454  5991
STARLINK-1166,45060,53.0515,0.0004008,15.45896665,426.01647490385403,431.4728712529941,1 45060U 20006S   26071.93965598  .00087017  00000+0  17502-2 0  9992,2 45060  53.0515 257.1996 0004008 160.7505 199.3653 15.45896665337162
STARLINK-1169,45061,53.1588,0.000134,15.30179437,474.35811011373426,476.19482492302996,1 45061U 20006T   26071.72946149  .00000734  00000+0  36937-4 0  9997,2 45061  53.1588 266.8758 0001340  78.6470 281.4681 15.30179437337014
STARLINK-1171,45062,53.0444,0.0001217,15.63634162,376.3476278474991,377.9918695101278,1 45062U 20006U   26072.00002314  .00135938  00000+0  14161-2 0  9995,2 45062  53.0444 233.2351 0001217  38.8442 133.6197 15.63634162  5785
STARLINK-1133,45064,53.1598,0.0001386,15.30212462,474.22799094649054,476.1277298257901,1 45064U 20006W   26071.73522093  .00002104  00000+0  83123-4 0  9991,2 45064  53.1598 243.6507 0001386 104.3030 255.8124 15.30212462337341
STARLINK-1167,45071,53.1619,0.0001374,15.29359074,476.7850775882571,478.66906903560266,1 45071U 20006AD  26071.76485872  .00000518  00000+0  30276-4 0  9993,2 45071  53.1619 243.5882 0001374  94.1033 266.0124 15.29359074337347
STARLINK-1168,45072,53.1594,0.0001228,15.29359348,476.88435443991693,478.56815445520806,1 45072U 20006AE  26071.70929302  .00001889  00000+0  77755-4 0  9994,2 45072  53.1594 243.9039 0001228  94.8892 265.2248 15.29359348337337
STARLINK-1172,45074,53.1588,0.0001218,15.3020213,474.3739721232032,476.0434471380695,1 45074U 20006AG  26071.71206468  .00001762  00000+0  71603-4 0  9994,2 45074  53.1588 243.7822 0001218 101.0563 259.0575 15.30202130337337
STARLINK-1153,45080,53.1616,0.0001209,15.2935068,476.92328237082256,478.5810363695582,1 45080U 20006AN  26071.74926873  .00001696  00000+0  71111-4 0  9993,2 45080  53.1616 243.5773 0001209  70.4219 289.6912 15.29350680337343
STARLINK-1151,45081,53.0521,0.0001382,15.65795225,370.01994773719343,371.885396122515,1 45081U 20006AP  26071.76403543  .00069710  00000+0  67460-3 0  9992,2 45081  53.0521 224.6880 0001382  14.9594 345.1462 15.65795225337603
STARLINK-1185,45087,53.1592,9.79e-05,15.32826371,466.7142216039292,468.05457469368775,1 45087U 20006AV  26072.00002314  .00058258  00000+0  18096-2 0  9992,2 45087  53.1592 226.9886 0000979  79.5254  56.7369 15.32826371  5839
STARLINK-1183,45088,53.1598,9.87e-05,15.30194599,474.5547684382873,475.9076233201531,1 45088U 20006AW  26071.69197274 -.00000579  00000+0 -74193-5 0  9995,2 45088  53.1598 228.6345 0000987  86.7899 273.3214 15.30194599337549
STARLINK-1152,45096,53.0384,0.0003049,15.39021606,446.9196449916526,451.08283389006374,1 45096U 20006BE  26071.71564458  .00074057  00000+0  18796-2 0  9993,2 45096  53.0384 192.2073 0003049 228.3875 131.6867 15.39021606338058
STARLINK-1184,45098,53.0519,0.0005146,15.10440887,531.2970148663699,538.411865656688,1 45098U 20006BG  26071.84264243  .00034989  00000+0  21103-2 0  9994,2 45098  53.0519 231.1789 0005146 139.7483 220.3889 15.10440887337512
STARLINK-1193,45100,53.0525,0.0002737,15.56478967,396.00226990252486,399.7114489411715,1 45100U 20006BJ  26072.00002314  .00084979  00000+0  11730-2 0  9995,2 45100  53.0525 214.3990 0002737 359.1399  57.3676 15.56478967  5915
